{
    "links": {
        "self": "http://www.neowsapp.com/rest/v1/neo/3840711?api_key=iIulBulltgU6a56xZRHN4H3l9WmuAYTsLGpBGhQ2"
    },
    "id": "3840711",
    "neo_reference_id": "3840711",
    "name": "(2019 FK1)",
    "designation": "2019 FK1",
    "nasa_jpl_url": "http://ssd.jpl.nasa.gov/sbdb.cgi?sstr=3840711",
    "absolute_magnitude_h": 25.2,
    "estimated_diameter": {
        "kilometers": {
            "estimated_diameter_min": 0.0242412481,
            "estimated_diameter_max": 0.0542050786
        },
        "meters": {
            "estimated_diameter_min": 24.2412481101,
            "estimated_diameter_max": 54.2050786336
        },
        "miles": {
            "estimated_diameter_min": 0.0150628086,
            "estimated_diameter_max": 0.0336814639
        },
        "feet": {
            "estimated_diameter_min": 79.5316564495,
            "estimated_diameter_max": 177.8381901842
        }
    },
    "is_potentially_hazardous_asteroid": false,
    "close_approach_data": [
        {
            "close_approach_date": "1942-12-23",
            "close_approach_date_full": "1942-Dec-23 16:40",
            "epoch_date_close_approach": -852794400000,
            "relative_velocity": {
                "kilometers_per_second": "17.231662778",
                "kilometers_per_hour": "62033.9860009238",
                "miles_per_hour": "38545.5064681851"
            },
            "miss_distance": {
                "astronomical": "0.4534400154",
                "lunar": "176.3881659906",
                "kilometers": "67833660.476607198",
                "miles": "42149882.1041594124"
            },
            "orbiting_body": "Earth"
        },
        {
            "close_approach_date": "1953-04-22",
            "close_approach_date_full": "1953-Apr-22 20:29",
            "epoch_date_close_approach": -526793460000,
            "relative_velocity": {
                "kilometers_per_second": "18.8904683759",
                "kilometers_per_hour": "68005.6861533545",
                "miles_per_hour": "42256.0887101218"
            },
            "miss_distance": {
                "astronomical": "0.4169241312",
                "lunar": "162.1834870368",
                "kilometers": "62370961.979120544",
                "miles": "38755518.6565457472"
            },
            "orbiting_body": "Earth"
        },
        {
            "close_approach_date": "2014-01-01",
            "close_approach_date_full": "2014-Jan-01 14:55",
            "epoch_date_close_approach": 1388588100000,
            "relative_velocity": {
                "kilometers_per_second": "14.2787572299",
                "kilometers_per_hour": "51403.5260277988",
                "miles_per_hour": "31940.152047662"
            },
            "miss_distance": {
                "astronomical": "0.3725936008",
                "lunar": "144.9389107112",
                "kilometers": "55739209.055310296",
                "miles": "34634738.4728062448"
            },
            "orbiting_body": "Earth"
        },
        {
            "close_approach_date": "2019-03-26",
            "close_approach_date_full": "2019-Mar-26 16:48",
            "epoch_date_close_approach": 1553618880000,
            "relative_velocity": {
                "kilometers_per_second": "9.1519509439",
                "kilometers_per_hour": "32947.023398048",
                "miles_per_hour": "20471.9990664149"
            },
            "miss_distance": {
                "astronomical": "0.0211879167",
                "lunar": "8.2420995963",
                "kilometers": "3169667.208057429",
                "miles": "1969539.8743093602"
            },
            "orbiting_body": "Earth"
        }
    ],
    "orbital_data": {
        "orbit_id": "3",
        "orbit_determination_date": "2019-04-05 07:30:19",
        "first_observation_date": "2019-03-29",
        "last_observation_date": "2019-04-02",
        "data_arc_in_days": 4,
        "observations_used": 110,
        "orbit_uncertainty": "7",
        "minimum_orbit_intersection": ".0169218",
        "jupiter_tisserand_invariant": "4.626",
        "epoch_osculation": "2459000.5",
        "eccentricity": ".3179265238981838",
        "semi_major_axis": "1.421571127312588",
        "inclination": "12.9922527521698",
        "ascending_node_longitude": "6.32114878516277",
        "orbital_period": "619.0864777670757",
        "perihelion_distance": ".9696159603320742",
        "perihelion_argument": "143.5482528996316",
        "aphelion_distance": "1.873526294293102",
        "perihelion_time": "2459157.973305821821",
        "mean_anomaly": "268.4289640757027",
        "mean_motion": ".5815019596267872",
        "equinox": "J2000",
        "orbit_class": {
            "orbit_class_type": "APO",
            "orbit_class_description": "Near-Earth asteroid orbits which cross the Earth’s orbit similar to that of 1862 Apollo",
            "orbit_class_range": "a (semi-major axis) > 1.0 AU; q (perihelion) < 1.017 AU"
        }
    },
    "is_sentry_object": false
}